NORAD_CAT_ID,OBJECT_NAME,OBJECT_TYPE,EPOCH,MEAN_MOTION,ECCENTRICITY,INCLINATION,RA_OF_ASC_NODE,ARG_OF_PERICENTER,MEAN_ANOMALY,BSTAR,MEAN_MOTION_DOT,MEAN_MOTION_DDOT,TLE_LINE0,TLE_LINE1,TLE_LINE2,SEMIMAJOR_AXIS,PERIOD,APOGEE,PERIGEE,DECAYED
53869.0,STARLINK-4810,PAYLOAD,2024-02-21 05:11:14,15.08840958,0.0001702,53.2201,29.3288,98.4623,261.6562,2.7875e-05,1.56e-06,0.0,0 STARLINK-4810,1 53869U 22114BD  24052.21614067  .00000156  00000-0  27875-4 0  9996,2 53869  53.2201  29.3288 0001702  98.4623 261.6562 15.08840958 80419,6917.877,95.437,540.92,538.565,0.0
53869.0,STARLINK-4810,PAYLOAD,2024-02-22 05:02:02,15.0881854,0.0001501,53.2189,24.8705,101.2189,258.8972,0.00036182,5.472e-05,0.0,0 STARLINK-4810,1 53869U 22114BD  24053.20975317  .00005472  00000-0  36182-3 0  9990,2 53869  53.2189  24.8705 0001501 101.2189 258.8972 15.08818540 80027,6917.946,95.439,540.849,538.773,0.0
53869.0,STARLINK-4810,PAYLOAD,2024-02-22 14:34:21,15.08831347,0.0001453,53.2187,23.0864,105.5088,254.6064,0.00019949,2.888e-05,0.0,0 STARLINK-4810,1 53869U 22114BD  24053.60718836  .00002888  00000-0  19949-3 0  9995,2 53869  53.2187  23.0864 0001453 105.5088 254.6064 15.08831347 80625,6917.907,95.438,540.777,538.767,0.0
53869.0,STARLINK-4810,PAYLOAD,2024-02-23 06:28:12,15.08843131,0.000152,53.2189,20.1127,107.816,252.2998,7.8357e-05,9.59e-06,0.0,0 STARLINK-4810,1 53869U 22114BD  24054.26958386  .00000959  00000-0  78357-4 0  9990,2 53869  53.2189  20.1127 0001520 107.8160 252.2998 15.08843131 80183,6917.871,95.437,540.787,538.684,0.0
53869.0,STARLINK-4810,PAYLOAD,2024-02-24 01:32:50,15.08836646,0.0001468,53.2193,16.5449,103.7633,256.3523,5.3373e-05,5.62e-06,0.0,0 STARLINK-4810,1 53869U 22114BD  24055.06447072  .00000562  00000-0  53373-4 0  9995,2 53869  53.2193  16.5449 0001468 103.7633 256.3523 15.08836646 80301,6917.891,95.438,540.771,538.74,0.0
53869.0,STARLINK-4810,PAYLOAD,2024-02-24 14:15:55,15.08840364,0.0001549,53.2189,14.1648,93.7195,266.3974,6.3261e-05,7.19e-06,0.0,0 STARLINK-4810,1 53869U 22114BD  24055.59439000  .00000719  00000-0  63261-4 0  9996,2 53869  53.2189  14.1648 0001549  93.7195 266.3974 15.08840364 80923,6917.879,95.438,540.816,538.673,0.0
53869.0,STARLINK-4810,PAYLOAD,2024-02-25 02:58:59,15.08850808,0.0001452,53.219,11.7845,91.4544,268.6614,7.541e-05,9.13e-06,0.0,0 STARLINK-4810,1 53869U 22114BD  24056.12430257  .00000913  00000-0  75410-4 0  9996,2 53869  53.2190  11.7845 0001452  91.4544 268.6614 15.08850808 80462,6917.847,95.437,540.717,538.708,0.0
53869.0,STARLINK-4810,PAYLOAD,2024-02-25 14:06:41,15.08850154,0.0001173,53.2176,9.7003,84.4337,275.6789,5.9307e-05,6.56e-06,0.0,0 STARLINK-4810,1 53869U 22114BD  24056.58797959  .00000656  00000-0  59307-4 0  9992,2 53869  53.2176   9.7003 0001173  84.4337 275.6789 15.08850154 81074,6917.849,95.437,540.526,538.903,0.0
53869.0,STARLINK-4810,PAYLOAD,2024-02-25 20:28:14,15.08846266,0.0001396,53.2202,8.5163,98.0444,262.0707,6.7769e-05,7.91e-06,0.0,0 STARLINK-4810,1 53869U 22114BD  24056.85294482  .00000791  00000-0  67769-4 0  9996,2 53869  53.2202   8.5163 0001396  98.0444 262.0707 15.08846266 80578,6917.861,95.437,540.692,538.761,0.0
53869.0,STARLINK-4810,PAYLOAD,2024-02-26 06:00:32,15.08855264,0.0001512,53.2198,6.7279,90.6523,269.4643,0.00017745,2.538e-05,0.0,0 STARLINK-4810,1 53869U 22114BD  24057.25037527  .00002538  00000-0  17745-3 0  9995,2 53869  53.2198   6.7279 0001512  90.6523 269.4643 15.08855264 80631,6917.834,95.437,540.745,538.653,0.0
53869.0,STARLINK-4810,PAYLOAD,2024-02-27 02:40:34,15.08840914,0.0001895,53.2199,2.8671,73.4721,286.6479,2.4254e-05,9.8e-07,0.0,0 STARLINK-4810,1 53869U 22114BD  24058.11150917  .00000098  00000-0  24254-4 0  9993,2 53869  53.2199   2.8671 0001895  73.4721 286.6479 15.08840914 80766,6917.878,95.437,541.054,538.432,0.0
53869.0,STARLINK-4810,PAYLOAD,2024-02-27 13:48:16,15.08840411,0.0001674,53.2197,0.779,91.5141,268.6043,2.6009e-05,1.26e-06,0.0,0 STARLINK-4810,1 53869U 22114BD  24058.57518683  .00000126  00000-0  26009-4 0  9993,2 53869  53.2197   0.7790 0001674  91.5141 268.6043 15.08840411 81372,6917.879,95.438,540.902,538.586,0.0
53869.0,STARLINK-4810,PAYLOAD,2024-02-28 02:31:21,15.08833411,0.0001086,53.2196,358.4005,100.2375,259.874,0.00017898,2.561e-05,0.0,0 STARLINK-4810,1 53869U 22114BD  24059.10510733  .00002561  00000-0  17898-3 0  9991,2 53869  53.2196 358.4005 0001086 100.2375 259.8740 15.08833411 81454,6917.901,95.438,540.517,539.014,0.0
53869.0,STARLINK-4810,PAYLOAD,2024-02-29 11:54:27,15.08839857,0.0001465,53.2197,352.1549,101.9209,258.1948,-2.1832e-05,-6.35e-06,0.0,0 STARLINK-4810,1 53869U 22114BD  24060.49614938 -.00000635  00000-0 -21832-4 0  9993,2 53869  53.2197 352.1549 0001465 101.9209 258.1948 15.08839857 81120,6917.881,95.438,540.759,538.732,0.0
53869.0,STARLINK-4810,PAYLOAD,2024-03-01 11:45:14,15.08843467,0.0001531,53.2202,347.6961,88.7439,271.3729,8.198e-05,1.017e-05,0.0,0 STARLINK-4810,1 53869U 22114BD  24061.48974755  .00001017  00000-0  81980-4 0  9992,2 53869  53.2202 347.6961 0001531  88.7439 271.3729 15.08843467 81817,6917.87,95.437,540.794,538.676,0.0
53869.0,STARLINK-4810,PAYLOAD,2024-03-02 02:03:42,15.08846008,0.000151,53.2199,345.0218,104.9061,255.2098,6.7177e-05,7.81e-06,0.0,0 STARLINK-4810,1 53869U 22114BD  24062.08590674  .00000781  00000-0  67177-4 0  9992,2 53869  53.2199 345.0218 0001510 104.9061 255.2098 15.08846008 81362,6917.862,95.437,540.772,538.682,0.0
53869.0,STARLINK-4810,PAYLOAD,2024-03-03 01:54:29,15.08845182,0.0001483,53.2196,340.5613,93.9419,266.1743,3.9941e-05,3.48e-06,0.0,0 STARLINK-4810,1 53869U 22114BD  24063.07950936  .00000348  00000-0  39941-4 0  9990,2 53869  53.2196 340.5613 0001483  93.9419 266.1743 15.08845182 81518,6917.865,95.437,540.755,538.704,0.0
53869.0,STARLINK-4810,PAYLOAD,2024-03-03 17:48:21,15.08841142,0.000158,53.219,337.5928,80.3169,279.8001,3.6174e-05,2.88e-06,0.0,0 STARLINK-4810,1 53869U 22114BD  24063.74191305  .00000288  00000-0  36174-4 0  9999,2 53869  53.2190 337.5928 0001580  80.3169 279.8001 15.08841142 82158,6917.877,95.437,540.835,538.649,0.0
53869.0,STARLINK-4810,PAYLOAD,2024-03-04 03:20:38,15.08857838,0.0001413,53.2188,335.804,93.6612,266.4541,9.0459e-05,1.153e-05,0.0,0 STARLINK-4810,1 53869U 22114BD  24064.13933872  .00001153  00000-0  90459-4 0  9994,2 53869  53.2188 335.8040 0001413  93.6612 266.4541 15.08857838 81672,6917.826,95.436,540.668,538.713,0.0
53869.0,STARLINK-4810,PAYLOAD,2024-03-04 11:17:34,15.08849438,0.0001398,53.219,334.3149,103.3512,256.7637,9.1996e-05,1.177e-05,0.0,0 STARLINK-4810,1 53869U 22114BD  24064.47054233  .00001177  00000-0  91996-4 0  9999,2 53869  53.2190 334.3149 0001398 103.3512 256.7637 15.08849438 81720,6917.852,95.437,540.684,538.749,0.0
53869.0,STARLINK-4810,PAYLOAD,2024-03-04 22:25:16,15.08853722,0.0001347,53.2184,332.2332,96.6099,263.5047,0.00010377,1.365e-05,0.0,0 STARLINK-4810,1 53869U 22114BD  24064.93421748  .00001365  00000-0  10377-3 0  9991,2 53869  53.2184 332.2332 0001347  96.6099 263.5047 15.08853722 82332,6917.838,95.437,540.635,538.772,0.0
53869.0,STARLINK-4810,PAYLOAD,2024-03-05 03:11:27,15.08824875,0.0001649,53.2181,331.3458,80.5358,279.582,-0.00010921,-2.025e-05,0.0,0 STARLINK-4810,1 53869U 22114BD  24065.13296223 -.00002025  00000-0 -10921-3 0  9993,2 53869  53.2181 331.3458 0001649  80.5358 279.5820 15.08824875 81829,6917.927,95.439,540.932,538.651,0.0
53869.0,STARLINK-4810,PAYLOAD,2024-03-06 03:02:13,15.08849972,0.0001386,53.2178,326.8813,92.9862,267.1289,6.3034e-05,7.16e-06,0.0,0 STARLINK-4810,1 53869U 22114BD  24066.12654419  .00000716  00000-0  63034-4 0  9995,2 53869  53.2178 326.8813 0001386  92.9862 267.1289 15.08849972 81977,6917.85,95.437,540.674,538.756,0.0
53869.0,STARLINK-4810,PAYLOAD,2024-03-07 02:53:03,15.08808184,0.0001538,53.2191,322.4214,92.0193,268.0976,4.3228e-05,4e-06,0.0,0 STARLINK-4810,1 53869U 22114BD  24067.12018159  .00000400  00000-0  43228-4 0  9994,2 53869  53.2191 322.4214 0001538  92.0193 268.0976 15.08808184 82127,6917.978,95.44,540.907,538.779,0.0
53869.0,STARLINK-4810,PAYLOAD,2024-03-08 02:43:48,15.08849968,0.0001654,53.2187,317.9619,92.3098,267.8083,0.00012302,1.671e-05,0.0,0 STARLINK-4810,1 53869U 22114BD  24068.11376040  .00001671  00000-0  12302-3 0  9999,2 53869  53.2187 317.9619 0001654  92.3098 267.8083 15.08849968 82273,6917.85,95.437,540.859,538.571,0.0
53869.0,STARLINK-4810,PAYLOAD,2024-03-09 02:34:36,15.08849623,0.0001504,53.2175,313.5017,91.3367,268.7797,0.00034757,5.249e-05,0.0,0 STARLINK-4810,1 53869U 22114BD  24069.10736512  .00005249  00000-0  34757-3 0  9996,2 53869  53.2175 313.5017 0001504  91.3367 268.7797 15.08849623 82423,6917.851,95.437,540.756,538.676,0.0
53869.0,STARLINK-4810,PAYLOAD,2024-03-09 08:56:08,15.08852165,0.0001605,53.2191,312.3128,96.6749,263.4426,0.0003844,5.837e-05,0.0,0 STARLINK-4810,1 53869U 22114BD  24069.37231706  .00005837  00000-0  38440-3 0  9996,2 53869  53.2191 312.3128 0001605  96.6749 263.4426 15.08852165 83006,6917.843,95.437,540.819,538.598,0.0
53869.0,STARLINK-4810,PAYLOAD,2024-03-09 23:14:36,15.08846559,0.0001626,53.2168,309.6356,81.9298,278.1879,-0.00011498,-2.118e-05,0.0,0 STARLINK-4810,1 53869U 22114BD  24069.96848001 -.00002118  00000-0 -11498-3 0  9998,2 53869  53.2168 309.6356 0001626  81.9298 278.1879 15.08846559 82555,6917.86,95.437,540.85,538.6,0.0
53869.0,STARLINK-4810,PAYLOAD,2024-03-10 08:46:55,15.08845917,0.0001741,53.2168,307.852,86.5337,273.5854,-0.00010124,-1.899e-05,0.0,0 STARLINK-4810,1 53869U 22114BD  24070.36591838 -.00001899  00000-0 -10124-3 0  9997,2 53869  53.2168 307.8520 0001741  86.5337 273.5854 15.08845917 83157,6917.862,95.437,540.932,538.523,0.0
53869.0,STARLINK-4810,PAYLOAD,2024-03-10 21:30:01,15.08843252,0.0001224,53.2178,305.4718,85.1476,274.9656,-0.00015134,-2.696e-05,0.0,0 STARLINK-4810,1 53869U 22114BD  24070.89584695 -.00002696  00000-0 -15134-3 0  9990,2 53869  53.2178 305.4718 0001224  85.1476 274.9656 15.08843252 82699,6917.87,95.437,540.582,538.889,0.0
